<?xml version="1.0" encoding="UTF-8"?>
<ndm xmlns:xsi="http://www.w3.org/2001/XMLSchema-instance" xsi:noNamespaceSchemaLocation="https://sanaregistry.org/r/ndmxml_unqualified/ndmxml-2.0.0-master-2.0.xsd">
<omm id="CCSDS_OMM_VERS" version="2.0">
<header><CREATION_DATE/><ORIGINATOR/></header><body><segment><metadata><OBJECT_NAME>ONEWEB-0098</OBJECT_NAME><OBJECT_ID>2020-020U</OBJECT_ID><CENTER_NAME>EARTH</CENTER_NAME><REF_FRAME>TEME</REF_FRAME><TIME_SYSTEM>UTC</TIME_SYSTEM><MEAN_ELEMENT_THEORY>SGP4</MEAN_ELEMENT_THEORY></metadata><data><meanElements><EPOCH>2024-04-28T16:01:25.312512</EPOCH><MEAN_MOTION>13.11417397</MEAN_MOTION><ECCENTRICITY>.0002179</ECCENTRICITY><INCLINATION>87.9008</INCLINATION><RA_OF_ASC_NODE>176.1204</RA_OF_ASC_NODE><ARG_OF_PERICENTER>101.2131</ARG_OF_PERICENTER><MEAN_ANOMALY>258.9242</MEAN_ANOMALY></meanElements><tleParameters><EPHEMERIS_TYPE>0</EPHEMERIS_TYPE><CLASSIFICATION_TYPE>U</CLASSIFICATION_TYPE><NORAD_CAT_ID>45442</NORAD_CAT_ID><ELEMENT_SET_NO>999</ELEMENT_SET_NO><REV_AT_EPOCH>20047</REV_AT_EPOCH><BSTAR>.31952E-3</BSTAR><MEAN_MOTION_DOT>.126E-5</MEAN_MOTION_DOT><MEAN_MOTION_DDOT>0</MEAN_MOTION_DDOT></tleParameters></data></segment></body></omm>
<omm id="CCSDS_OMM_VERS" version="2.0">
<header><CREATION_DATE/><ORIGINATOR/></header><body><segment><metadata><OBJECT_NAME>ONEWEB-0055</OBJECT_NAME><OBJECT_ID>2020-020V</OBJECT_ID><CENTER_NAME>EARTH</CENTER_NAME><REF_FRAME>TEME</REF_FRAME><TIME_SYSTEM>UTC</TIME_SYSTEM><MEAN_ELEMENT_THEORY>SGP4</MEAN_ELEMENT_THEORY></metadata><data><meanElements><EPOCH>2024-04-28T15:43:10.374816</EPOCH><MEAN_MOTION>13.11690271</MEAN_MOTION><ECCENTRICITY>.0002086</ECCENTRICITY><INCLINATION>87.9007</INCLINATION><RA_OF_ASC_NODE>176.1257</RA_OF_ASC_NODE><ARG_OF_PERICENTER>101.5684</ARG_OF_PERICENTER><MEAN_ANOMALY>258.5678</MEAN_ANOMALY></meanElements><tleParameters><EPHEMERIS_TYPE>0</EPHEMERIS_TYPE><CLASSIFICATION_TYPE>U</CLASSIFICATION_TYPE><NORAD_CAT_ID>45443</NORAD_CAT_ID><ELEMENT_SET_NO>999</ELEMENT_SET_NO><REV_AT_EPOCH>20045</REV_AT_EPOCH><BSTAR>.67927E-1</BSTAR><MEAN_MOTION_DOT>.24247E-3</MEAN_MOTION_DOT><MEAN_MOTION_DDOT>0</MEAN_MOTION_DDOT></tleParameters></data></segment></body></omm>
<omm id="CCSDS_OMM_VERS" version="2.0">
<header><CREATION_DATE/><ORIGINATOR/></header><body><segment><metadata><OBJECT_NAME>ONEWEB-0093</OBJECT_NAME><OBJECT_ID>2020-020W</OBJECT_ID><CENTER_NAME>EARTH</CENTER_NAME><REF_FRAME>TEME</REF_FRAME><TIME_SYSTEM>UTC</TIME_SYSTEM><MEAN_ELEMENT_THEORY>SGP4</MEAN_ELEMENT_THEORY></metadata><data><meanElements><EPOCH>2024-04-28T13:15:27.804096</EPOCH><MEAN_MOTION>13.11416101</MEAN_MOTION><ECCENTRICITY>.0002011</ECCENTRICITY><INCLINATION>87.9005</INCLINATION><RA_OF_ASC_NODE>176.1270</RA_OF_ASC_NODE><ARG_OF_PERICENTER>106.6568</ARG_OF_PERICENTER><MEAN_ANOMALY>253.4781</MEAN_ANOMALY></meanElements><tleParameters><EPHEMERIS_TYPE>0</EPHEMERIS_TYPE><CLASSIFICATION_TYPE>U</CLASSIFICATION_TYPE><NORAD_CAT_ID>45444</NORAD_CAT_ID><ELEMENT_SET_NO>999</ELEMENT_SET_NO><REV_AT_EPOCH>20049</REV_AT_EPOCH><BSTAR>-.59916E-4</BSTAR><MEAN_MOTION_DOT>-.9E-7</MEAN_MOTION_DOT><MEAN_MOTION_DDOT>0</MEAN_MOTION_DDOT></tleParameters></data></segment></body></omm>
<omm id="CCSDS_OMM_VERS" version="2.0">
<header><CREATION_DATE/><ORIGINATOR/></header><body><segment><metadata><OBJECT_NAME>ONEWEB-0029</OBJECT_NAME><OBJECT_ID>2020-020X</OBJECT_ID><CENTER_NAME>EARTH</CENTER_NAME><REF_FRAME>TEME</REF_FRAME><TIME_SYSTEM>UTC</TIME_SYSTEM><MEAN_ELEMENT_THEORY>SGP4</MEAN_ELEMENT_THEORY></metadata><data><meanElements><EPOCH>2024-04-28T21:02:58.927488</EPOCH><MEAN_MOTION>13.11417855</MEAN_MOTION><ECCENTRICITY>.0001844</ECCENTRICITY><INCLINATION>87.9007</INCLINATION><RA_OF_ASC_NODE>176.0765</RA_OF_ASC_NODE><ARG_OF_PERICENTER>97.0591</ARG_OF_PERICENTER><MEAN_ANOMALY>263.0747</MEAN_ANOMALY></meanElements><tleParameters><EPHEMERIS_TYPE>0</EPHEMERIS_TYPE><CLASSIFICATION_TYPE>U</CLASSIFICATION_TYPE><NORAD_CAT_ID>45445</NORAD_CAT_ID><ELEMENT_SET_NO>999</ELEMENT_SET_NO><REV_AT_EPOCH>20052</REV_AT_EPOCH><BSTAR>-.13556E-2</BSTAR><MEAN_MOTION_DOT>-.468E-5</MEAN_MOTION_DOT><MEAN_MOTION_DDOT>0</MEAN_MOTION_DDOT></tleParameters></data></segment></body></omm>
<omm id="CCSDS_OMM_VERS" version="2.0">
<header><CREATION_DATE/><ORIGINATOR/></header><body><segment><metadata><OBJECT_NAME>ONEWEB-0068</OBJECT_NAME><OBJECT_ID>2020-020Y</OBJECT_ID><CENTER_NAME>EARTH</CENTER_NAME><REF_FRAME>TEME</REF_FRAME><TIME_SYSTEM>UTC</TIME_SYSTEM><MEAN_ELEMENT_THEORY>SGP4</MEAN_ELEMENT_THEORY></metadata><data><meanElements><EPOCH>2024-04-28T13:07:16.353984</EPOCH><MEAN_MOTION>13.11417021</MEAN_MOTION><ECCENTRICITY>.0001962</ECCENTRICITY><INCLINATION>87.9006</INCLINATION><RA_OF_ASC_NODE>176.1270</RA_OF_ASC_NODE><ARG_OF_PERICENTER>102.7977</ARG_OF_PERICENTER><MEAN_ANOMALY>257.3370</MEAN_ANOMALY></meanElements><tleParameters><EPHEMERIS_TYPE>0</EPHEMERIS_TYPE><CLASSIFICATION_TYPE>U</CLASSIFICATION_TYPE><NORAD_CAT_ID>45446</NORAD_CAT_ID><ELEMENT_SET_NO>999</ELEMENT_SET_NO><REV_AT_EPOCH>20042</REV_AT_EPOCH><BSTAR>.70987E-3</BSTAR><MEAN_MOTION_DOT>.264E-5</MEAN_MOTION_DOT><MEAN_MOTION_DDOT>0</MEAN_MOTION_DDOT></tleParameters></data></segment></body></omm>
<omm id="CCSDS_OMM_VERS" version="2.0">
<header><CREATION_DATE/><ORIGINATOR/></header><body><segment><metadata><OBJECT_NAME>ONEWEB-0046</OBJECT_NAME><OBJECT_ID>2020-020Z</OBJECT_ID><CENTER_NAME>EARTH</CENTER_NAME><REF_FRAME>TEME</REF_FRAME><TIME_SYSTEM>UTC</TIME_SYSTEM><MEAN_ELEMENT_THEORY>SGP4</MEAN_ELEMENT_THEORY></metadata><data><meanElements><EPOCH>2024-04-28T13:03:46.289664</EPOCH><MEAN_MOTION>13.11416202</MEAN_MOTION><ECCENTRICITY>.0001921</ECCENTRICITY><INCLINATION>87.9005</INCLINATION><RA_OF_ASC_NODE>176.1397</RA_OF_ASC_NODE><ARG_OF_PERICENTER>89.3754</ARG_OF_PERICENTER><MEAN_ANOMALY>270.7594</MEAN_ANOMALY></meanElements><tleParameters><EPHEMERIS_TYPE>0</EPHEMERIS_TYPE><CLASSIFICATION_TYPE>U</CLASSIFICATION_TYPE><NORAD_CAT_ID>45447</NORAD_CAT_ID><ELEMENT_SET_NO>999</ELEMENT_SET_NO><REV_AT_EPOCH>20042</REV_AT_EPOCH><BSTAR>.52478E-3</BSTAR><MEAN_MOTION_DOT>.199E-5</MEAN_MOTION_DOT><MEAN_MOTION_DDOT>0</MEAN_MOTION_DDOT></tleParameters></data></segment></body></omm>
<omm id="CCSDS_OMM_VERS" version="2.0">
<header><CREATION_DATE/><ORIGINATOR/></header><body><segment><metadata><OBJECT_NAME>ONEWEB-0063</OBJECT_NAME><OBJECT_ID>2020-020AA</OBJECT_ID><CENTER_NAME>EARTH</CENTER_NAME><REF_FRAME>TEME</REF_FRAME><TIME_SYSTEM>UTC</TIME_SYSTEM><MEAN_ELEMENT_THEORY>SGP4</MEAN_ELEMENT_THEORY></metadata><data><meanElements><EPOCH>2024-04-28T13:45:50.847552</EPOCH><MEAN_MOTION>13.11418962</MEAN_MOTION><ECCENTRICITY>.000211</ECCENTRICITY><INCLINATION>87.9008</INCLINATION><RA_OF_ASC_NODE>176.1356</RA_OF_ASC_NODE><ARG_OF_PERICENTER>89.4886</ARG_OF_PERICENTER><MEAN_ANOMALY>270.6484</MEAN_ANOMALY></meanElements><tleParameters><EPHEMERIS_TYPE>0</EPHEMERIS_TYPE><CLASSIFICATION_TYPE>U</CLASSIFICATION_TYPE><NORAD_CAT_ID>45448</NORAD_CAT_ID><ELEMENT_SET_NO>999</ELEMENT_SET_NO><REV_AT_EPOCH>20051</REV_AT_EPOCH><BSTAR>-.12958E-2</BSTAR><MEAN_MOTION_DOT>-.447E-5</MEAN_MOTION_DOT><MEAN_MOTION_DDOT>0</MEAN_MOTION_DDOT></tleParameters></data></segment></body></omm>
<omm id="CCSDS_OMM_VERS" version="2.0">
<header><CREATION_DATE/><ORIGINATOR/></header><body><segment><metadata><OBJECT_NAME>ONEWEB-0019</OBJECT_NAME><OBJECT_ID>2020-020AB</OBJECT_ID><CENTER_NAME>EARTH</CENTER_NAME><REF_FRAME>TEME</REF_FRAME><TIME_SYSTEM>UTC</TIME_SYSTEM><MEAN_ELEMENT_THEORY>SGP4</MEAN_ELEMENT_THEORY></metadata><data><meanElements><EPOCH>2024-04-28T13:08:27.055968</EPOCH><MEAN_MOTION>13.11414468</MEAN_MOTION><ECCENTRICITY>.0002286</ECCENTRICITY><INCLINATION>87.9010</INCLINATION><RA_OF_ASC_NODE>176.1415</RA_OF_ASC_NODE><ARG_OF_PERICENTER>99.2347</ARG_OF_PERICENTER><MEAN_ANOMALY>260.9039</MEAN_ANOMALY></meanElements><tleParameters><EPHEMERIS_TYPE>0</EPHEMERIS_TYPE><CLASSIFICATION_TYPE>U</CLASSIFICATION_TYPE><NORAD_CAT_ID>45449</NORAD_CAT_ID><ELEMENT_SET_NO>999</ELEMENT_SET_NO><REV_AT_EPOCH>20035</REV_AT_EPOCH><BSTAR>.87434E-4</BSTAR><MEAN_MOTION_DOT>.44E-6</MEAN_MOTION_DOT><MEAN_MOTION_DDOT>0</MEAN_MOTION_DDOT></tleParameters></data></segment></body></omm>

</ndm>
