ONEWEB-0098             
1 45442U 20020U   24119.66765408  .00000126  00000+0  31952-3 0  9993
2 45442  87.9008 176.1204 0002179 101.2131 258.9242 13.11417397200474
ONEWEB-0055             
1 45443U 20020V   24119.65498119  .00024247  00000+0  67927-1 0  9994
2 45443  87.9007 176.1257 0002086 101.5684 258.5678 13.11690271200456
ONEWEB-0093             
1 45444U 20020W   24119.55240514 -.00000009  00000+0 -59916-4 0  9992
2 45444  87.9005 176.1270 0002011 106.6568 253.4781 13.11416101200496
ONEWEB-0029             
1 45445U 20020X   24119.87707092 -.00000468  00000+0 -13556-2 0  9994
2 45445  87.9007 176.0765 0001844  97.0591 263.0747 13.11417855200529
ONEWEB-0068             
1 45446U 20020Y   24119.54671706  .00000264  00000+0  70987-3 0  9995
2 45446  87.9006 176.1270 0001962 102.7977 257.3370 13.11417021200426
ONEWEB-0046             
1 45447U 20020Z   24119.54428576  .00000199  00000+0  52478-3 0  9993
2 45447  87.9005 176.1397 0001921  89.3754 270.7594 13.11416202200421
ONEWEB-0063             
1 45448U 20020AA  24119.57350518 -.00000447  00000+0 -12958-2 0  9993
2 45448  87.9008 176.1356 0002110  89.4886 270.6484 13.11418962200510
ONEWEB-0019             
1 45449U 20020AB  24119.54753537  .00000044  00000+0  87434-4 0  9993
2 45449  87.9010 176.1415 0002286  99.2347 260.9039 13.11414468200352
